{
  "norad_id": 61003,
  "name": "STARLINK-32279",
  "history": [
    {
      "epoch": "2026-03-28T21:53:42.440064Z",
      "apogee_km": 475.7762874380869,
      "perigee_km": 474.7099014953883,
      "latitude_deg": 1.0862129981867413e-05,
      "longitude_deg": -178.46076215716164,
      "height_km": 475.9502345923143,
      "semi_major_axis_km": 6853.380094466737,
      "eccentricity": 7.78e-05,
      "inclination_deg": 53.1607,
      "raan_deg": 336.292,
      "arg_perigee_deg": 68.9246,
      "mean_anomaly_deg": 291.1838,
      "mean_motion_rev_day": 15.30190614
    },
    {
      "epoch": "2026-03-28T23:27:46.113120Z",
      "apogee_km": 476.05743721838826,
      "perigee_km": 474.45100231647393,
      "latitude_deg": 5.711198783931728e-05,
      "longitude_deg": 157.6569852584051,
      "height_km": 476.06966657398334,
      "semi_major_axis_km": 6853.391219767431,
      "eccentricity": 0.0001172,
      "inclination_deg": 53.161,
      "raan_deg": 335.9894,
      "arg_perigee_deg": 84.0784,
      "mean_anomaly_deg": 276.0351,
      "mean_motion_rev_day": 15.30186888
    },
    {
      "epoch": "2026-03-29T22:58:30.516960Z",
      "apogee_km": 475.91383016685086,
      "perigee_km": 474.3567667006464,
      "latitude_deg": 1.2853546055902173e-05,
      "longitude_deg": 159.4554195008148,
      "height_km": 476.00744542248407,
      "semi_major_axis_km": 6853.272298433749,
      "eccentricity": 0.0001136,
      "inclination_deg": 53.161,
      "raan_deg": 331.4385,
      "arg_perigee_deg": 88.0694,
      "mean_anomaly_deg": 272.0437,
      "mean_motion_rev_day": 15.30226717
    },
    {
      "epoch": "2026-03-29T22:58:30.517824Z",
      "apogee_km": 475.9135560359591,
      "perigee_km": 474.35704083153905,
      "latitude_deg": 1.6529211682911048e-05,
      "longitude_deg": 159.4554186293962,
      "height_km": 476.007454659486,
      "semi_major_axis_km": 6853.272298433749,
      "eccentricity": 0.00011356,
      "inclination_deg": 53.161,
      "raan_deg": 331.4385,
      "arg_perigee_deg": 88.0694,
      "mean_anomaly_deg": 272.0437,
      "mean_motion_rev_day": 15.30226717
    },
    {
      "epoch": "2026-03-30T20:55:18.579648Z",
      "apogee_km": 476.4106051814497,
      "perigee_km": 474.06633956737005,
      "latitude_deg": 1.4527967087707587e-05,
      "longitude_deg": -174.8886577109408,
      "height_km": 476.2503639966297,
      "semi_major_axis_km": 6853.37547237441,
      "eccentricity": 0.00017103,
      "inclination_deg": 53.1615,
      "raan_deg": 327.196,
      "arg_perigee_deg": 95.5945,
      "mean_anomaly_deg": 264.5251,
      "mean_motion_rev_day": 15.30192162
    },
    {
      "epoch": "2026-03-31T01:37:28.138656Z",
      "apogee_km": 476.3002568659758,
      "perigee_km": 474.22532154579585,
      "latitude_deg": 3.4089170161881844e-05,
      "longitude_deg": 113.4645967157977,
      "height_km": 476.3732716397291,
      "semi_major_axis_km": 6853.399789205886,
      "eccentricity": 0.00015138,
      "inclination_deg": 53.1614,
      "raan_deg": 326.2822,
      "arg_perigee_deg": 101.823,
      "mean_anomaly_deg": 258.2941,
      "mean_motion_rev_day": 15.30184018
    },
    {
      "epoch": "2026-04-01T20:00:01.999008Z",
      "apogee_km": 476.2425241844612,
      "perigee_km": 474.1796664077765,
      "latitude_deg": 9.620300608316727,
      "longitude_deg": -164.86305311572931,
      "height_km": 475.13035107803506,
      "semi_major_axis_km": 6853.348095296119,
      "eccentricity": 0.0001505,
      "inclination_deg": 53.159,
      "raan_deg": 318.0807,
      "arg_perigee_deg": 88.5024,
      "mean_anomaly_deg": 283.5926,
      "mean_motion_rev_day": 15.30201331
    },
    {
      "epoch": "2026-04-02T21:01:44.690016Z",
      "apogee_km": 476.2671903582177,
      "perigee_km": 474.1632112325742,
      "latitude_deg": -4.412131243759705e-05,
      "longitude_deg": 166.57946914229825,
      "height_km": 476.0825161560538,
      "semi_major_axis_km": 6853.352200795396,
      "eccentricity": 0.0001535,
      "inclination_deg": 53.1609,
      "raan_deg": 313.2343,
      "arg_perigee_deg": 88.3388,
      "mean_anomaly_deg": 271.7788,
      "mean_motion_rev_day": 15.30199956
    },
    {
      "epoch": "2026-04-02T21:01:44.690880Z",
      "apogee_km": 476.2673274252629,
      "perigee_km": 474.1630741655299,
      "latitude_deg": -4.596954339031907e-05,
      "longitude_deg": 166.57946415547815,
      "height_km": 476.0825121833296,
      "semi_major_axis_km": 6853.352200795396,
      "eccentricity": 0.00015352,
      "inclination_deg": 53.1609,
      "raan_deg": 313.2343,
      "arg_perigee_deg": 88.3388,
      "mean_anomaly_deg": 271.7788,
      "mean_motion_rev_day": 15.30199956
    },
    {
      "epoch": "2026-04-03T20:32:33.432864Z",
      "apogee_km": 476.21285682656526,
      "perigee_km": 474.2870550919406,
      "latitude_deg": 9.652184768507869e-06,
      "longitude_deg": 168.3587472653446,
      "height_km": 476.49707065594015,
      "semi_major_axis_km": 6853.386955959252,
      "eccentricity": 0.0001405,
      "inclination_deg": 53.1613,
      "raan_deg": 308.6823,
      "arg_perigee_deg": 111.2484,
      "mean_anomaly_deg": 248.8667,
      "mean_motion_rev_day": 15.30188316
    },
    {
      "epoch": "2026-04-04T18:29:17.693088Z",
      "apogee_km": 476.1394059934555,
      "perigee_km": 474.310928967172,
      "latitude_deg": -9.042551693688964e-06,
      "longitude_deg": -165.97205991494047,
      "height_km": 476.1996224566127,
      "semi_major_axis_km": 6853.3621674803135,
      "eccentricity": 0.0001334,
      "inclination_deg": 53.163,
      "raan_deg": 304.4372,
      "arg_perigee_deg": 94.7773,
      "mean_anomaly_deg": 265.338,
      "mean_motion_rev_day": 15.30196618
    },
    {
      "epoch": "2026-04-05T13:17:56.477760Z",
      "apogee_km": 475.8701323025598,
      "perigee_km": 474.62555761471594,
      "latitude_deg": 2.7996519513809814e-05,
      "longitude_deg": -92.54626734968984,
      "height_km": 476.1161669003179,
      "semi_major_axis_km": 6853.384844958638,
      "eccentricity": 9.08e-05,
      "inclination_deg": 53.1615,
      "raan_deg": 300.7971,
      "arg_perigee_deg": 87.2003,
      "mean_anomaly_deg": 272.9102,
      "mean_motion_rev_day": 15.30189023
    },
    {
      "epoch": "2026-04-05T19:34:09.075648Z",
      "apogee_km": 475.9164997770431,
      "perigee_km": 474.55130829296013,
      "latitude_deg": 1.5288843111043518e-05,
      "longitude_deg": 171.92962494482026,
      "height_km": 476.11435722933413,
      "semi_major_axis_km": 6853.370904035001,
      "eccentricity": 9.96e-05,
      "inclination_deg": 53.1603,
      "raan_deg": 299.583,
      "arg_perigee_deg": 88.4872,
      "mean_anomaly_deg": 271.6243,
      "mean_motion_rev_day": 15.30193692
    },
    {
      "epoch": "2026-04-06T06:32:31.386336Z",
      "apogee_km": 475.87753086948305,
      "perigee_km": 474.58745259636,
      "latitude_deg": -2.986817175640664e-05,
      "longitude_deg": 4.762489579073264,
      "height_km": 476.0360343224626,
      "semi_major_axis_km": 6853.369491732921,
      "eccentricity": 9.412e-05,
      "inclination_deg": 53.16,
      "raan_deg": 297.4595,
      "arg_perigee_deg": 81.5314,
      "mean_anomaly_deg": 278.5793,
      "mean_motion_rev_day": 15.30194165
    },
    {
      "epoch": "2026-04-07T12:19:32.317536Z",
      "apogee_km": 476.0024349275127,
      "perigee_km": 474.46522385048047,
      "latitude_deg": -1.3231338581211007e-05,
      "longitude_deg": -88.9800499967134,
      "height_km": 476.1090278382376,
      "semi_major_axis_km": 6853.370829388996,
      "eccentricity": 0.00011215,
      "inclination_deg": 53.1597,
      "raan_deg": 291.694,
      "arg_perigee_deg": 88.2817,
      "mean_anomaly_deg": 271.8312,
      "mean_motion_rev_day": 15.30193717
    },
    {
      "epoch": "2026-04-07T20:09:48.444192Z",
      "apogee_km": 476.01905384514157,
      "perigee_km": 474.47156012022515,
      "latitude_deg": 5.737548101471076e-08,
      "longitude_deg": 151.6142770059947,
      "height_km": 476.1735173122888,
      "semi_major_axis_km": 6853.382306982683,
      "eccentricity": 0.0001129,
      "inclination_deg": 53.1599,
      "raan_deg": 290.1774,
      "arg_perigee_deg": 92.2189,
      "mean_anomaly_deg": 267.8941,
      "mean_motion_rev_day": 15.30189873
    },
    {
      "epoch": "2026-04-08T13:24:23.096160Z",
      "apogee_km": 476.04548089405944,
      "perigee_km": 474.40368959269927,
      "latitude_deg": 1.4627459837007058e-05,
      "longitude_deg": -111.07494069072895,
      "height_km": 476.0847489634512,
      "semi_major_axis_km": 6853.3615852433795,
      "eccentricity": 0.00011978,
      "inclination_deg": 53.1599,
      "raan_deg": 286.8407,
      "arg_perigee_deg": 87.3469,
      "mean_anomaly_deg": 272.7669,
      "mean_motion_rev_day": 15.30196813
    }
  ]
}